[{
  "_id": 1,
  "namesurname": "Juan Pérez",
  "address": "América 120",
  "city": "Madrid",
  "city_id": 1,
  "postalcode": "28042",
  "province": "Madrid",
  "province_id": 28,
  "phone": "655555555"
},{
  "_id": 2,
  "namesurname": "Macarena Gómez",
  "address": "Constitució 54",
  "city": "València",
  "city_id": 2,
  "postalcode": "46009",
  "province": "València",
  "province_id": 46,
  "phone": "644444444"
},{
  "_id": 3,
  "namesurname": "Dionisio Fernández",
  "address": "Catalunya 10",
  "city": "Barcelona",
  "city_id": 3,
  "postalcode": "08002",
  "province": "Barcelona",
  "province_id": 8,
  "phone": "633333333"
},{
  "_id": 4,
  "namesurname": "Álvaro Sánchez",
  "address": "Sant Antoni 20",
  "city": "Barcelona",
  "city_id": 3,
  "postalcode": "08014",
  "province": "Barcelona",
  "province_id": 8,
  "phone": "62222322"
},{
  "_id": 5,
  "namesurname": "Dolores García",
  "address": "Sant Antoni 28",
  "city": "Barcelona",
  "postalcode": "08014",
  "province": "Barcelona",
  "province_id": 8,
  "phone": "62224222"
},{
  "_id": 6,
  "namesurname": "Montserrat Guanyabens",
  "address": "Sant Antoni 36",
  "city": "Barcelona",
  "city_id": 3,
  "postalcode": "08014",
  "province": "Barcelona",
  "province_id": 8,
  "phone": "62222222"
},{
  "_id": 7,
  "namesurname": "Elisabeth Puigcerdà",
  "address": "Sant Antoni 12",
  "city": "Barcelona",
  "city_id": 3,
  "postalcode": "08014",
  "province": "Barcelona",
  "province_id": 8,
  "phone": "62332222"
},{
  "_id": 8,
  "namesurname": "Antoni Puigcerdà",
  "address": "Sant Antoni 12",
  "city": "Barcelona",
  "city_id": 3,
  "postalcode": "08014",
  "province": "Barcelona",
  "province_id": 8,
  "phone": "62332221"
},{
  "_id": 9,
  "namesurname": "Cayetano Polo",
  "address": "Catalunya 14",
  "city": "Barcelona",
  "city_id": 3,
  "postalcode": "08002",
  "province": "Barcelona",
  "province_id": 8,
  "phone": "633333423"
},{
  "_id": 10,
  "namesurname": "Vanessa Polo",
  "address": "Catalunya 14",
  "city": "Barcelona",
  "city_id": 3,
  "postalcode": "08002",
  "province": "Barcelona",
  "province_id": 8,
  "phone": "633333427"
}]